[Satellite]
VERSION=1.1
NAME=TEVEL-7
NICKNAME=TEVEL-7
TLE1=1 51062U 22002CG  22342.28094326  .00009541  00000+0  48369-3 0  9998
TLE2=2 51062  97.4636  46.4721 0009538 171.0023 262.1166 15.17126730 49745
STATUS=0
